
# Worst residual: 15.89 km
# MJD 60784.000000 (2025 Apr 19  0:00)
XL8D89E
1 89996U 00000AAD 25109.49919926  .00000000  00000-0  00000-0 2 28473
2 89996 045.6617 242.9949 1356522 021.1822 203.8994 00.01382256    03

# Worst residual: 15.39 km
# MJD 60785.000000 (2025 Apr 20  0:00)
XL8D89E
1 89996U 00000AAD 25110.49919926  .00000000  00000-0  00000-0 2 28475
2 89996 045.5616 242.8710 1431208 021.8238 208.5460 00.01395773    07

# Worst residual: 15.30 km
# MJD 60786.000000 (2025 Apr 21  0:00)
XL8D89E
1 89996U 00000AAD 25111.49919926  .00000000  00000-0  00000-0 2 28476
2 89996 045.4437 242.7026 1483260 022.0764 213.7064 00.01404423    09

# Worst residual: 13.98 km
# MJD 60787.000000 (2025 Apr 22  0:00)
XL8D89E
1 89996U 00000AAD 25112.49919926  .00000000  00000-0  00000-0 2 28477
2 89996 045.3201 242.4996 1515139 021.9275 219.3515 00.01408380    05

# Worst residual: 13.03 km
# MJD 60788.000000 (2025 Apr 23  0:00)
XL8D89E
1 89996U 00000AAD 25113.49919926  .00000000  00000-0  00000-0 2 28478
2 89996 045.1952 242.2613 1524941 021.2845 225.5225 00.01406982    00

# Worst residual: 11.24 km
# MJD 60789.000000 (2025 Apr 24  0:00)
XL8D89E
1 89996U 00000AAD 25114.49919926  .00000000  00000-0  00000-0 2 28479
2 89996 045.0871 242.0195 1515591 019.9107 232.4259 00.01399878    07

# Worst residual: 13.15 km
# MJD 60790.000000 (2025 Apr 25  0:00)
XL8D89E
1 89996U 00000AAD 25115.49919926  .00000000  00000-0  00000-0 2 28470
2 89996 045.0017 241.7927 1491084 017.6547 240.1574 00.01387070    08

# Worst residual: 17.48 km
# MJD 60791.000000 (2025 Apr 26  0:00)
XL8D89E
1 89996U 00000AAD 25116.49919926  .00000000  00000-0  00000-0 2 28471
2 89996 044.9435 241.6058 1458559 014.3663 248.8187 00.01368900    03

# Worst residual: 21.51 km
# MJD 60792.000000 (2025 Apr 27  0:00)
XL8D89E
1 89996U 00000AAD 25117.49919926  .00000000  00000-0  00000-0 2 28472
2 89996 044.9123 241.4808 1427581 009.9940 258.4202 00.01346103    03

# Worst residual: 24.87 km
# MJD 60793.000000 (2025 Apr 28  0:00)
XL8D89E
1 89996U 00000AAD 25118.49919926  .00000000  00000-0  00000-0 2 28473
2 89996 044.9027 241.4312 1408574 004.6681 268.8031 00.01319742    05

# Worst residual: 26.84 km
# MJD 60794.000000 (2025 Apr 29  0:00)
XL8D89E
1 89996U 00000AAD 25119.49919926  .00000000  00000-0  00000-0 2 28474
2 89996 044.9061 241.4599 1410222 358.7395 279.6035 00.01291057    00

# Worst residual: 28.69 km
# MJD 60795.000000 (2025 Apr 30  0:00)
XL8D89E
1 89996U 00000AAD 25120.49919926  .00000000  00000-0  00000-0 2 28476
2 89996 044.9129 241.5583 1437035 352.7076 290.3236 00.01261257    02

# Worst residual: 28.46 km
# MJD 60796.000000 (2025 May  1  0:00)
XL8D89E
1 89996U 00000AAD 25121.49919926  .00000000  00000-0  00000-0 2 28477
2 89996 044.9148 241.7102 1488500 347.0584 300.4888 00.01231380    06

# Worst residual: 28.32 km
# MJD 60797.000000 (2025 May  2  0:00)
XL8D89E
1 89996U 00000AAD 25122.49919926  .00000000  00000-0  00000-0 2 28478
2 89996 044.9062 241.8954 1560315 342.1215 309.7871 00.01202207    09

# Worst residual: 26.89 km
# MJD 60798.000000 (2025 May  3  0:00)
XL8D89E
1 89996U 00000AAD 25123.49919926  .00000000  00000-0  00000-0 2 28479
2 89996 044.8849 242.0938 1646434 338.0340 318.1003 00.01174284    00

# Worst residual: 25.07 km
# MJD 60799.000000 (2025 May  4  0:00)
XL8D89E
1 89996U 00000AAD 25124.49919926  .00000000  00000-0  00000-0 2 28470
2 89996 044.8514 242.2876 1740836 334.7888 325.4554 00.01147974    01

# Worst residual: 22.88 km
# MJD 60800.000000 (2025 May  5  0:00)
XL8D89E
1 89996U 00000AAD 25125.49919926  .00000000  00000-0  00000-0 2 28471
2 89996 044.8091 242.4623 1838317 332.3064 331.9517 00.01123529    06

# Worst residual: 20.15 km
# MJD 60801.000000 (2025 May  6  0:00)
XL8D89E
1 89996U 00000AAD 25126.49919926  .00000000  00000-0  00000-0 2 28472
2 89996 044.7632 242.6064 1934720 330.4878 337.7099 00.01101138    05

# Worst residual: 16.40 km
# MJD 60802.000000 (2025 May  7  0:00)
XL8D89E
1 89996U 00000AAD 25127.49919926  .00000000  00000-0  00000-0 2 28473
2 89996 044.7211 242.7106 2027648 329.2752 342.8263 00.01080861    05

# Worst residual: 13.07 km
# MJD 60803.000000 (2025 May  8  0:00)
XL8D89E
1 89996U 00000AAD 25128.49919926  .00000000  00000-0  00000-0 2 28474
2 89996 044.6908 242.7713 2112144 328.5278 347.4362 00.01063123    05

# Worst residual: 9.71 km
# MJD 60804.000000 (2025 May  9  0:00)
XL8D89E
1 89996U 00000AAD 25129.49919926  .00000000  00000-0  00000-0 2 28475
2 89996 044.6818 242.7862 2188624 328.3232 351.5456 00.01047765    08

# Worst residual: 11.98 km
# MJD 60805.000000 (2025 May 10  0:00)
XL8D89E
1 89996U 00000AAD 25130.49919926  .00000000  00000-0  00000-0 2 28477
2 89996 044.6966 242.7673 2253894 328.6716 355.1869 00.01035083    02

# Worst residual: 13.84 km
# MJD 60806.000000 (2025 May 11  0:00)
XL8D89E
1 89996U 00000AAD 25131.49919926  .00000000  00000-0  00000-0 2 28478
2 89996 044.7162 242.7465 2303845 329.5733 358.3903 00.01025522    02

# Worst residual: 15.51 km
# MJD 60807.000000 (2025 May 12  0:00)
XL8D89E
1 89996U 00000AAD 25132.49919926  .00000000  00000-0  00000-0 2 28479
2 89996 044.6982 242.7607 2332849 330.7593 001.3477 00.01019782    05

# Worst residual: 11.57 km
# MJD 60808.000000 (2025 May 13  0:00)
XL8D89E
1 89996U 00000AAD 25133.49919926  .00000000  00000-0  00000-0 2 28470
2 89996 044.6307 242.8037 2338963 331.7106 004.4183 00.01018193    01

# Worst residual: 5.49 km
# MJD 60809.000000 (2025 May 14  0:00)
XL8D89E
1 89996U 00000AAD 25134.49919926  .00000000  00000-0  00000-0 2 28471
2 89996 044.5542 242.8398 2325682 332.1338 007.8341 00.01020452    01

# Worst residual: 6.47 km
# MJD 60810.000000 (2025 May 15  0:00)
XL8D89E
1 89996U 00000AAD 25135.49919926  .00000000  00000-0  00000-0 2 28472
2 89996 044.5054 242.8554 2296687 332.0388 011.6360 00.01026259    04
